NORAD_CAT_ID,OBJECT_NAME,OBJECT_TYPE,EPOCH,MEAN_MOTION,ECCENTRICITY,INCLINATION,RA_OF_ASC_NODE,ARG_OF_PERICENTER,MEAN_ANOMALY,BSTAR,MEAN_MOTION_DOT,MEAN_MOTION_DDOT,TLE_LINE0,TLE_LINE1,TLE_LINE2,SEMIMAJOR_AXIS,PERIOD,APOGEE,PERIGEE,DECAYED
55965.0,STARLINK-5894,PAYLOAD,2023-12-29 11:36:04,14.98329554,0.0002954,70.0001,124.4468,265.0011,95.0811,-1.5506e-05,-2.78e-06,0.0,0 STARLINK-5894,1 55965U 23037BD  23363.48339003 -.00000278  00000-0 -15506-4 0  9992,2 55965  70.0001 124.4468 0002954 265.0011  95.0811 14.98329554 44804,6950.194,96.107,574.112,570.006,0.0
55965.0,STARLINK-5894,PAYLOAD,2023-12-29 14:48:21,14.98329669,0.0002945,70.0002,124.1102,264.6623,95.42,-1.2024e-05,-2.36e-06,0.0,0 STARLINK-5894,1 55965U 23037BD  23363.61690988 -.00000236  00000-0 -12024-4 0  9995,2 55965  70.0002 124.1102 0002945 264.6623  95.4200 14.98329669 44488,6950.194,96.107,574.106,570.012,0.0
55965.0,STARLINK-5894,PAYLOAD,2023-12-29 18:00:36,14.98332053,0.0002916,70.0003,123.7738,264.28,95.8027,1.6544e-05,1.04e-06,0.0,0 STARLINK-5894,1 55965U 23037BD  23363.75042746  .00000104  00000-0  16544-4 0  9996,2 55965  70.0003 123.7738 0002916 264.2800  95.8027 14.98332053 44505,6950.187,96.107,574.078,570.025,0.0
55965.0,STARLINK-5894,PAYLOAD,2023-12-30 11:38:05,14.98329731,0.0002921,70.0003,121.9231,261.1411,98.9418,5.9069e-05,6.12e-06,0.0,0 STARLINK-5894,1 55965U 23037BD  23364.48478662  .00000612  00000-0  59069-4 0  9990,2 55965  70.0003 121.9231 0002921 261.1411  98.9418 14.98329731 44959,6950.194,96.107,574.089,570.029,0.0
55965.0,STARLINK-5894,PAYLOAD,2023-12-30 14:50:21,14.98330155,0.0002902,70.0004,121.5866,260.5379,99.5452,6.2779e-05,6.56e-06,0.0,0 STARLINK-5894,1 55965U 23037BD  23364.61830623  .00000656  00000-0  62779-4 0  9994,2 55965  70.0004 121.5866 0002902 260.5379  99.5452 14.98330155 44637,6950.192,96.107,574.074,570.04,0.0
55965.0,STARLINK-5894,PAYLOAD,2023-12-30 18:02:37,14.98330418,0.0002915,70.0004,121.2499,261.7168,98.3661,6.1812e-05,6.45e-06,0.0,0 STARLINK-5894,1 55965U 23037BD  23364.75182606  .00000645  00000-0  61812-4 0  9995,2 55965  70.0004 121.2499 0002915 261.7168  98.3661 14.98330418 44652,6950.192,96.107,574.083,570.031,0.0
55965.0,STARLINK-5894,PAYLOAD,2023-12-31 11:40:06,14.98328483,0.000287,70.0006,119.3994,258.6712,101.4125,-3.3286e-05,-4.9e-06,0.0,0 STARLINK-5894,1 55965U 23037BD  23365.48619006 -.00000490  00000-0 -33286-4 0  9999,2 55965  70.0006 119.3994 0002870 258.6712 101.4125 14.98328483 45103,6950.198,96.107,574.057,570.068,0.0
55965.0,STARLINK-5894,PAYLOAD,2023-12-31 18:04:39,14.98328143,0.0002877,70.0004,118.7244,263.3767,96.7065,-2.8548e-05,-4.34e-06,0.0,0 STARLINK-5894,1 55965U 23037BD  23365.75323050 -.00000434  00000-0 -28548-4 0  9993,2 55965  70.0004 118.7244 0002877 263.3767  96.7065 14.98328143 44800,6950.199,96.107,574.063,570.064,0.0
55965.0,STARLINK-5894,PAYLOAD,2024-01-01 11:42:07,14.98331789,0.0002869,70.0003,116.8725,267.5223,92.5608,-2.4503e-06,-1.22e-06,0.0,0 STARLINK-5894,1 55965U 23037BD  24001.48758711 -.00000122  00000-0 -24503-5 0  9999,2 55965  70.0003 116.8725 0002869 267.5223  92.5608 14.98331789 45253,6950.187,96.107,574.046,570.058,0.0
55965.0,STARLINK-5894,PAYLOAD,2024-01-01 13:18:15,14.98331745,0.000287,70.0003,116.7042,267.5148,92.5682,-2.493e-06,-1.23e-06,0.0,0 STARLINK-5894,1 55965U 23037BD  24001.55434706 -.00000123  00000-0 -24930-5 0  9997,2 55965  70.0003 116.7042 0002870 267.5148  92.5682 14.98331745 44929,6950.187,96.107,574.047,570.058,0.0
55965.0,STARLINK-5894,PAYLOAD,2024-01-01 16:30:31,14.98332165,0.0002866,70.0003,116.3676,267.7049,92.3782,2.7731e-06,-6e-07,0.0,0 STARLINK-5894,1 55965U 23037BD  24001.68786650 -.00000060  00000-0  27731-5 0  9990,2 55965  70.0003 116.3676 0002866 267.7049  92.3782 14.98332165 44943,6950.186,96.107,574.043,570.059,0.0
55965.0,STARLINK-5894,PAYLOAD,2024-01-02 11:44:08,14.98330496,0.0002985,70.0,114.3475,267.7066,92.3752,3.7964e-05,3.6e-06,0.0,0 STARLINK-5894,1 55965U 23037BD  24002.48898529  .00000360  00000-0  37964-4 0  9998,2 55965  70.0000 114.3475 0002985 267.7066  92.3752 14.98330496 45400,6950.191,96.107,574.131,569.982,0.0
55965.0,STARLINK-5894,PAYLOAD,2024-01-02 13:20:16,14.9833074,0.0002977,70.0,114.1793,267.668,92.4139,4.0609e-05,3.92e-06,0.0,0 STARLINK-5894,1 55965U 23037BD  24002.55574501  .00000392  00000-0  40609-4 0  9992,2 55965  70.0000 114.1793 0002977 267.6680  92.4139 14.98330740 45078,6950.191,96.107,574.125,569.987,0.0
55965.0,STARLINK-5894,PAYLOAD,2024-01-02 16:32:32,14.983322,0.0002965,70.0001,113.8426,267.5748,92.5072,5.5136e-05,5.65e-06,0.0,0 STARLINK-5894,1 55965U 23037BD  24002.68926348  .00000565  00000-0  55136-4 0  9999,2 55965  70.0001 113.8426 0002965 267.5748  92.5072 14.98332200 45091,6950.186,96.107,574.112,569.99,0.0
55965.0,STARLINK-5894,PAYLOAD,2024-01-03 10:10:01,14.9832361,0.0002835,70.0004,111.9918,263.5842,96.4994,-8.7889e-05,-1.141e-05,0.0,0 STARLINK-5894,1 55965U 23037BD  24003.42363321 -.00001141  00000-0 -87889-4 0  9991,2 55965  70.0004 111.9918 0002835 263.5842  96.4994 14.98323610 45547,6950.213,96.107,574.048,570.107,0.0
55965.0,STARLINK-5894,PAYLOAD,2024-01-03 13:22:18,14.98323628,0.0002817,70.0005,111.6552,262.8679,97.2159,-8.3126e-05,-1.084e-05,0.0,0 STARLINK-5894,1 55965U 23037BD  24003.55715346 -.00001084  00000-0 -83126-4 0  9999,2 55965  70.0005 111.6552 0002817 262.8679  97.2159 14.98323628 45225,6950.213,96.107,574.035,570.12,0.0
55965.0,STARLINK-5894,PAYLOAD,2024-01-03 16:34:34,14.98324306,0.0002806,70.0005,111.3186,262.7735,97.3105,-7.2661e-05,-9.6e-06,0.0,0 STARLINK-5894,1 55965U 23037BD  24003.69067312 -.00000960  00000-0 -72661-4 0  9991,2 55965  70.0005 111.3186 0002806 262.7735  97.3105 14.98324306 45243,6950.21,96.107,574.026,570.125,0.0
55965.0,STARLINK-5894,PAYLOAD,2024-01-04 11:48:10,14.98331691,0.0003201,69.9995,109.2974,270.8351,89.2441,1.3416e-05,6.7e-07,0.0,0 STARLINK-5894,1 55965U 23037BD  24004.49178587  .00000067  00000-0  13416-4 0  9996,2 55965  69.9995 109.2974 0003201 270.8351  89.2441 14.98331691 45702,6950.188,96.107,574.277,569.828,0.0
55965.0,STARLINK-5894,PAYLOAD,2024-01-04 13:24:18,14.98333211,0.000319,69.9993,109.1287,270.8335,89.2459,2.4509e-05,1.99e-06,0.0,0 STARLINK-5894,1 55965U 23037BD  24004.55854441  .00000199  00000-0  24509-4 0  9994,2 55965  69.9993 109.1287 0003190 270.8335  89.2459 14.98333211 45377,6950.183,96.107,574.265,569.831,0.0
55965.0,STARLINK-5894,PAYLOAD,2024-01-04 16:36:33,14.98337893,0.0003109,69.9997,108.7931,270.0705,90.0097,7.2546e-05,7.73e-06,0.0,0 STARLINK-5894,1 55965U 23037BD  24004.69205955  .00000773  00000-0  72546-4 0  9991,2 55965  69.9997 108.7931 0003109 270.0705  90.0097 14.98337893 45733,6950.168,96.106,574.194,569.873,0.0
55965.0,STARLINK-5894,PAYLOAD,2024-01-05 10:14:03,14.98322818,0.0002541,70.0014,106.9438,255.8155,104.2722,6.4618e-05,6.78e-06,0.0,0 STARLINK-5894,1 55965U 23037BD  24005.42642938  .00000678  00000-0  64618-4 0  9994,2 55965  70.0014 106.9438 0002541 255.8155 104.2722 14.98322818 45843,6950.215,96.107,573.846,570.314,0.0
55965.0,STARLINK-5894,PAYLOAD,2024-01-05 13:26:19,14.98322604,0.0002594,70.0014,106.607,257.3765,102.7104,4.771e-05,4.76e-06,0.0,0 STARLINK-5894,1 55965U 23037BD  24005.55995043  .00000476  00000-0  47710-4 0  9996,2 55965  70.0014 106.6070 0002594 257.3765 102.7104 14.98322604 45529,6950.216,96.107,573.884,570.278,0.0
55965.0,STARLINK-5894,PAYLOAD,2024-01-05 16:38:36,14.9832054,0.0002685,70.001,106.2695,261.8478,98.2376,1.3772e-05,7.1e-07,0.0,0 STARLINK-5894,1 55965U 23037BD  24005.69347356  .00000071  00000-0  13772-4 0  9991,2 55965  70.0010 106.2695 0002685 261.8478  98.2376 14.98320540 45545,6950.222,96.108,573.953,570.221,0.0
55965.0,STARLINK-5894,PAYLOAD,2024-01-06 11:52:12,14.98333395,0.0002921,70.0006,104.2493,267.7237,92.3588,-7.6052e-06,-1.84e-06,0.0,0 STARLINK-5894,1 55965U 23037BD  24006.49458610 -.00000184  00000-0 -76052-5 0  9994,2 55965  70.0006 104.2493 0002921 267.7237  92.3588 14.98333395 46009,6950.182,96.107,574.078,570.017,0.0
55965.0,STARLINK-5894,PAYLOAD,2024-01-06 16:40:36,14.98335463,0.0002797,70.0005,103.7433,266.8239,93.26,2.9083e-05,2.54e-06,0.0,0 STARLINK-5894,1 55965U 23037BD  24006.69486309  .00000254  00000-0  29083-4 0  9999,2 55965  70.0005 103.7433 0002797 266.8239  93.2600 14.98335463 45696,6950.176,96.107,573.985,570.097,0.0
55965.0,STARLINK-5894,PAYLOAD,2024-01-07 11:54:13,14.98328185,0.0002891,70.0001,101.7243,259.2767,100.8067,1.6343e-05,1.02e-06,0.0,0 STARLINK-5894,1 55965U 23037BD  24007.49598609  .00000102  00000-0  16343-4 0  9992,2 55965  70.0001 101.7243 0002891 259.2767 100.8067 14.98328185 46153,6950.199,96.107,574.073,570.054,0.0
55965.0,STARLINK-5894,PAYLOAD,2024-01-07 13:30:20,14.98360115,0.000303,70.0006,101.5557,261.0624,99.0192,-0.00049824,-6.037e-05,0.0,0 STARLINK-5894,1 55965U 23037BD  24007.56273917 -.00006037  00000-0 -49824-3 0  9996,2 55965  70.0006 101.5557 0003030 261.0624  99.0192 14.98360115 45823,6950.1,96.105,574.071,569.859,0.0
55965.0,STARLINK-5894,PAYLOAD,2024-01-07 16:42:37,14.98330718,0.0002808,70.0003,101.2193,256.9329,103.1517,4.6694e-05,4.64e-06,0.0,0 STARLINK-5894,1 55965U 23037BD  24007.69626335  .00000464  00000-0  46694-4 0  9995,2 55965  70.0003 101.2193 0002808 256.9329 103.1517 14.98330718 45846,6950.191,96.107,574.007,570.104,0.0
55965.0,STARLINK-5894,PAYLOAD,2024-01-08 11:56:14,14.98327221,0.00027,70.0006,99.1996,262.9964,97.0888,-7.2103e-05,-9.53e-06,0.0,0 STARLINK-5894,1 55965U 23037BD  24008.49738982 -.00000953  00000-0 -72103-4 0  9995,2 55965  70.0006  99.1996 0002700 262.9964  97.0888 14.98327221 46307,6950.201,96.107,573.943,570.19,0.0
55965.0,STARLINK-5894,PAYLOAD,2024-01-08 13:32:22,14.98326224,0.0002515,70.0011,99.0316,256.1244,103.9635,-6.8416e-05,-9.09e-06,0.0,0 STARLINK-5894,1 55965U 23037BD  24008.56415046 -.00000909  00000-0 -68416-4 0  9999,2 55965  70.0011  99.0316 0002515 256.1244 103.9635 14.98326224 45979,6950.205,96.107,573.818,570.322,0.0
